[Satellite]
VERSION=1.1
NAME=RADARSAT-1
NICKNAME=RADARSAT-1
TLE1=1 23710U 95059A   11060.05798515  .00000223  00000-0  10331-3 0  1966
TLE2=2 23710  98.5828  68.0652 0001038  88.9360   1.6251 14.29982821799688
